STARLINK-31968          
1 59927U 24106F   25047.26932390 -.00001178  00000+0 -20966-4 0  9992
2 59927  43.0046 358.3870 0001029 270.2224  89.8514 15.40682084 41431
STARLINK-31970          
1 59928U 24106G   25047.57777393  .00000183  00000+0  11651-4 0  9991
2 59928  43.0044 356.3998 0002102 259.2627 100.7993 15.40697659 41489
STARLINK-31932          
1 59929U 24106H   25047.25718660 -.00004441  00000+0 -98968-4 0  9998
2 59929  43.0009 354.7252 0002503 252.8872 107.1710 15.40733618 41420
STARLINK-31956          
1 59930U 24106J   25047.58225945 -.00002846  00000+0 -60888-4 0  9992
2 59930  43.0048 356.4344 0000599 342.7066  17.3770 15.40707022 41432
STARLINK-31960          
1 59931U 24106K   25047.20225124 -.00002347  00000+0 -48945-4 0  9997
2 59931  43.0058 358.7405 0001628 262.4502  97.6170 15.40689105 41373
STARLINK-31432          
1 59932U 24106L   25047.56210427 -.00038511  00000+0 -91940-3 0  9991
2 59932  42.9989 356.2878 0000760  19.1620 340.9265 15.40697475 41431
STARLINK-31853          
1 59933U 24106M   25047.58001845  .00002968  00000+0  78352-4 0  9994
2 59933  43.0042 356.4177 0001213 270.8189  89.2529 15.40678638 41434
STARLINK-31971          
1 59934U 24106N   25047.56775570 -.00001074  00000+0 -18445-4 0  9992
2 59934  43.0025 351.8456 0001338 275.4685  84.6019 15.40700559 41368
STARLINK-31962          
1 59936U 24106Q   25047.55725217  .00001221  00000+0  36488-4 0  9995
2 59936  43.0073 356.2395 0001671 272.2168  87.8498 15.40711092 41433
STARLINK-31879          
1 59937U 24106R   25047.54383519 -.00002371  00000+0 -49543-4 0  9995
2 59937  43.0049 356.1356 0000501 340.8404  19.2433 15.40687914 41487
STARLINK-31876          
1 59938U 24106S   25047.26035899  .00000784  00000+0  26051-4 0  9993
2 59938  43.0042 358.3156 0001263 263.9306  96.1406 15.40686595 41393
STARLINK-31955          
1 59939U 24106T   25047.19775773  .00167637  00000+0  39138-2 0  9997
2 59939  43.0031 358.7046 0003864 254.8832 105.1597 15.40842379 41426
STARLINK-31946          
1 59940U 24106U   25047.54829747  .00000879  00000+0  28319-4 0  9994
2 59940  43.0039 356.1702 0001342 273.0176  87.0527 15.40693966 32067
STARLINK-31948          
1 59941U 24106V   25047.52994823  .00001870  00000+0  52048-4 0  9999
2 59941  43.0067 353.3335 0002031 267.0907  92.9718 15.40694690 41467
STARLINK-31900          
1 59942U 24106W   25047.14192948 -.00006892  00000+0 -15802-3 0  9993
2 59942  43.0111 359.1521 0002570 268.8486  91.2076 15.40663850 41360
STARLINK-31973          
1 59943U 24106X   25047.56432904  .00000266  00000+0  13646-4 0  9991
2 59943  43.0060 356.2982 0001576 270.0145  90.0531 15.40705326 41431
STARLINK-31966          
1 59944U 24106Y   25047.57106521 -.00000192  00000+0  26556-5 0  9990
2 59944  43.0039 356.3428 0001040 270.2870  89.7868 15.40688972 41487
STARLINK-11145 [DTC]    
1 59945U 24107A   25047.54741432  .00001669  00000+0  18633-4 0  9990
2 59945  53.1576 355.1223 0001572  85.2115 274.9082 15.69711808 41495
STARLINK-11121 [DTC]    
1 59946U 24107B   25047.55630025 -.00001441  00000+0 -48074-5 0  9990
2 59946  53.1579 349.3083 0001600 106.6838 253.4359 15.76717337 41647
STARLINK-11113 [DTC]    
1 59947U 24107C   25047.55221224 -.00000456  00000+0  11008-5 0  9999
2 59947  53.1593 354.4057 0001475 115.9482 244.1687 15.69716629 41501
STARLINK-11123 [DTC]    
1 59948U 24107D   25047.15559853 -.00003656  00000+0 -25333-4 0  9999
2 59948  53.1587 356.9393 0001575  46.7046 313.4103 15.69702458 41499
STARLINK-11138 [DTC]    
1 59949U 24107E   25047.58164384  .00005887  00000+0  53387-4 0  9994
2 59949  53.1582 354.6071 0001249  82.0170 278.0990 15.69723317 41567
STARLINK-11130 [DTC]    
1 59950U 24107F   25047.27802330 -.00009950  00000+0 -77417-4 0  9999
2 59950  53.1588 356.2819 0000596  12.4447 347.6586 15.69696283 41454
STARLINK-11126 [DTC]    
1 59951U 24107G   25047.52016014 -.00008450  00000+0 -47616-4 0  9996
2 59951  53.1594 340.7838 0001386 117.7374 242.3787 15.76757345 41737
STARLINK-11124 [DTC]    
1 59952U 24107H   25047.14085382  .00000809  00000+0  11523-4 0  9995
2 59952  53.1585 356.8403 0001008  99.6150 260.4982 15.69733805 41505
STARLINK-11143 [DTC]    
1 59953U 24107J   25047.57674491  .00000619  00000+0  99687-5 0  9995
2 59953  53.1579 354.5764 0001213  97.1353 262.9802 15.69707972 41504
STARLINK-11133 [DTC]    
1 59954U 24107K   25047.57184245 -.00001740  00000+0 -95050-5 0  9997
2 59954  53.1592 354.5460 0001406  96.4231 263.6947 15.69705151 41509
STARLINK-11144 [DTC]    
1 59955U 24107L   25047.56694055 -.00000330  00000+0  21425-5 0  9990
2 59955  53.1585 354.5108 0001391  97.4471 262.6705 15.69696668 41560
STARLINK-11134 [DTC]    
1 59956U 24107M   25047.56202907 -.00000536  00000+0  44032-6 0  9990
2 59956  53.1598 354.4816 0001542  93.4765 266.6430 15.69708036 41438
STARLINK-11142 [DTC]    
1 59957U 24107N   25047.55712379  .00000234  00000+0  67932-5 0  9996
2 59957  53.1605 354.4452 0001524  90.7546 269.3647 15.69705331 41515
STARLINK-31995          
1 59958U 24107P   25047.39496373 -.00000737  00000+0 -12753-4 0  9992
2 59958  53.1608  59.7860 0001246  89.8151 270.2993 15.30190445 39456
STARLINK-31989          
1 59959U 24107Q   25047.25800336 -.00000818  00000+0 -15494-4 0  9991
2 59959  53.1600  60.3530 0001514  81.7436 278.3736 15.30201991 40631
STARLINK-31856          
1 59960U 24107R   25047.26116594  .00000857  00000+0  41099-4 0  9991
2 59960  53.1624  60.3797 0001988 120.4623 239.6575 15.30191437 40632
STARLINK-31993          
1 59961U 24107S   25047.40130679 -.00001955  00000+0 -53941-4 0  9999
2 59961  53.1618  59.8246 0001244  87.5799 272.5344 15.30172776 40590
STARLINK-31980          
1 59962U 24107T   25047.40867745  .00015044  00000+0  51899-3 0  9992
2 59962  53.1608  59.8687 0001164  91.9343 268.1791 15.30201631 40651
STARLINK-31991          
1 59963U 24107U   25047.46344576 -.00000674  00000+0 -10629-4 0  9993
2 59963  53.1610  59.5005 0001389 101.7947 258.3209 15.30188072 40664
STARLINK-31979          
1 59964U 24107V   25047.40550983  .00000943  00000+0  43958-4 0  9997
2 59964  53.1620  59.8472 0001547  91.2167 268.9011 15.30195446 40605
STARLINK-31978          
1 60016U 24111A   25047.25274128 -.00000388  00000+0 -97415-6 0  9993
2 60016  53.1602  70.9179 0001306  94.7385 265.3764 15.30189628 39762
STARLINK-31987          
1 60017U 24111B   25047.37703737 -.00001104  00000+0 -25165-4 0  9998
2 60017  53.1617  70.2688 0001422 110.5060 249.6093 15.30188079 39841
STARLINK-31984          
1 60018U 24111C   25047.43496703 -.00000504  00000+0 -49115-5 0  9993
2 60018  53.1611  69.9192 0001264  95.7594 264.3550 15.30185080 39741
STARLINK-31986          
1 60019U 24111D   25047.42546468  .00010941  00000+0  38092-3 0  9991
2 60019  53.1577  69.8586 0001517  85.1219 274.9955 15.30204191 39906
STARLINK-31883          
1 60020U 24111E   25047.44552180 -.00001739  00000+0 -46619-4 0  9995
2 60020  53.1608  69.9882 0001268  80.1402 279.9742 15.30180895 39841
STARLINK-31967          
1 60021U 24111F   25047.26212192  .00000413  00000+0  26095-4 0  9994
2 60021  53.1604  70.2586 0001413  77.6600 282.4559 15.30187423 39880
STARLINK-31982          
1 60022U 24111G   25047.45174250  .00002276  00000+0  89046-4 0  9992
2 60022  53.1609  69.3184 0001559  83.8276 276.2902 15.30168170 39913
STARLINK-31992          
1 60023U 24111H   25047.46123645  .00013715  00000+0  47379-3 0  9998
2 60023  53.1601  69.3681 0000840  91.6445 268.4652 15.30235585 39915
STARLINK-31990          
1 60024U 24111J   25047.28533608  .00001241  00000+0  54026-4 0  9992
2 60024  53.1600  70.4090 0001104  92.2244 267.8883 15.30195522 39870
STARLINK-31864          
1 60025U 24111K   25047.25905951 -.00000676  00000+0 -10691-4 0  9997
2 60025  53.1610  70.8787 0001474  88.9980 271.1190 15.30195208 39867
STARLINK-31939          
1 60026U 24111L   25047.27162252  .00000154  00000+0  17332-4 0  9997
2 60026  53.1598  70.3182 0001343  65.0631 295.0509 15.30184330 39875
STARLINK-32012          
1 60027U 24111M   25047.27478778  .00000815  00000+0  39640-4 0  9991
2 60027  53.1603  70.3360 0001430  86.2599 273.8566 15.30188812 39872
STARLINK-32008          
1 60028U 24111N   25047.27900644  .00000733  00000+0  36884-4 0  9990
2 60028  53.1578  70.3620 0001245  85.1644 274.9499 15.30190361 39875
STARLINK-32006          
1 60029U 24111P   25047.35382139  .00000291  00000+0  21969-4 0  9990
2 60029  53.1602  70.1265 0001385 123.5672 236.5461 15.30188534 39883
STARLINK-32011          
1 60030U 24111Q   25047.45384174  .00000480  00000+0  28327-4 0  9999
2 60030  53.1609  69.3295 0001385  95.1938 264.9221 15.30193604 39900
STARLINK-31878          
1 60031U 24111R   25047.30516793  .00022233  00000+0  76102-3 0  9991
2 60031  53.1618  18.5741 0001857 109.9851 250.1350 15.30179224 40358
STARLINK-32017          
1 60032U 24111S   25047.37281203 -.00003157  00000+0 -94477-4 0  9996
2 60032  53.1602  70.2391 0001184  99.0011 261.1124 15.30211237 39886
STARLINK-31998          
1 60033U 24111T   25047.35698611 -.00000708  00000+0 -11785-4 0  9990
2 60033  53.1601  70.1370 0001300  88.6137 271.5013 15.30191168 39775
STARLINK-32005          
1 60034U 24111U   25047.28216991  .00000993  00000+0  45651-4 0  9993
2 60034  53.1571  70.3829 0001559 115.6538 244.4624 15.30196601 39779
STARLINK-31981          
1 60035U 24111V   25047.43180099 -.00000431  00000+0 -24164-5 0  9996
2 60035  53.1610  69.8948 0001447  97.3653 262.7512 15.30184625 39827
STARLINK-31985          
1 60036U 24111W   25047.49395538 -.00003662  00000+0 -11164-3 0  9992
2 60036  53.1614  69.5701 0001600  85.0354 275.0830 15.30177013 39844
STARLINK-31918          
1 60037U 24111X   25047.26845344  .00000390  00000+0  25297-4 0  9999
2 60037  53.1605  70.2987 0001444  82.8926 277.2239 15.30191732 39803
